2025-274C               
1 66652U 25274C   25343.53067732  .00003732  00000+0  37452-3 0  9993
2 66652  97.7387 270.7817 0010406 269.9894  90.0132 14.91874076  1922
2025-274D               
1 66653U 25274D   25343.53061704  .00003888  00000+0  38978-3 0  9993
2 66653  97.7386 270.7814 0011279 265.8961  94.0969 14.91878474  1926
JACK E                  
1 66654U 25274E   25343.39506182  .00004414  00000+0  43977-3 0  9993
2 66654  97.7388 270.6521 0011864 268.0515  91.9345 14.92052620  1903
2025-274F               
1 66655U 25274F   25342.78970739  .00015539  00000+0  15161-2 0  9992
2 66655  97.7329 270.0601 0005490 323.8556  36.2292 14.92504145  1812
2025-274G               
1 66656U 25274G   25343.59467258  .00004735  00000+0  46905-3 0  9997
2 66656  97.7385 270.8514 0012485 269.0756  90.9033 14.92242660  1935
SPIRONE                 
1 66657U 25274H   25342.85561376  .00003729  00000+0  36917-3 0  9996
2 66657  97.7386 270.1280 0010976 290.7866  69.2177 14.92414576  1829
2025-274J               
1 66658U 25274J   25343.59161780  .00004485  00000+0  44076-3 0  9999
2 66658  97.7384 270.8551 0011520 291.0278  68.9708 14.92594222  1938
JACK K                  
1 66659U 25274K   25343.59001020  .00004410  00000+0  43144-3 0  9993
2 66659  97.7386 270.8575 0012271 292.2179  67.7739 14.92780033  1932
K-HERO                  
1 66660U 25274L   25343.32062059  .00004705  00000+0  45811-3 0  9995
2 66660  97.7391 270.5960 0012891 293.8465  66.1402 14.92929512  1890
SNUGLITE-III            
1 66661U 25274M   25343.52039139  .00003422  00000+0  33346-3 0  9996
2 66661  97.7389 270.7952 0013544 294.1543  65.8260 14.93072210  1925
2025-274N               
1 66662U 25274N   25343.31882751  .00003153  00000+0  30732-3 0  9997
2 66662  97.7389 270.5980 0013906 294.3348  65.6419 14.93119374  1895
KSLV-II R/B             
1 66663U 25274P   25343.35005284  .00003867  00000+0  33078-3 0  9998
2 66663  97.7404 270.7232 0050161 331.3188  28.5276 14.97241242  1909
